HAWK-11A                
1 62382U 24247F   26068.51231358  .00009457  00000+0  34106-3 0  9991
2 62382  44.9941 114.3328 0005466 327.3713  32.6832 15.28849427 67741
STARLINK-34290          
1 64929U 25157AB  26068.17163370  .00040982  00000+0  13875-2 0  9998
2 64929  53.1609 348.1326 0000894 117.6872 242.4220 15.30217310 36048
